NORAD_CAT_ID,OBJECT_NAME,OBJECT_TYPE,EPOCH,MEAN_MOTION,ECCENTRICITY,INCLINATION,RA_OF_ASC_NODE,ARG_OF_PERICENTER,MEAN_ANOMALY,BSTAR,MEAN_MOTION_DOT,MEAN_MOTION_DDOT,TLE_LINE0,TLE_LINE1,TLE_LINE2,SEMIMAJOR_AXIS,PERIOD,APOGEE,PERIGEE,DECAYED
52638.0,STARLINK-3941,PAYLOAD,2023-09-17 17:20:35,15.08868271,0.0001145,53.219,7.1864,77.6345,282.4776,0.0023592,0.00037488,0.0,0 STARLINK-3941,1 52638U 22052AS  23260.72262834  .00037488  00000-0  23592-2 0  9995,2 52638  53.2190   7.1864 0001145  77.6345 282.4776 15.08868271 74907,6917.794,95.436,540.451,538.867,0.0
52638.0,STARLINK-3941,PAYLOAD,2023-09-17 23:42:07,15.08851517,8.28e-05,53.2198,5.9968,87.9762,272.1325,0.00072053,0.00011202,0.0,0 STARLINK-3941,1 52638U 22052AS  23260.98758764  .00011202  00000-0  72053-3 0  9998,2 52638  53.2198   5.9968 0000828  87.9762 272.1325 15.08851517 74945,6917.845,95.437,540.283,539.137,0.0
52638.0,STARLINK-3941,PAYLOAD,2023-09-18 10:49:49,15.08837424,0.0001312,53.2184,3.9159,84.2015,275.9126,0.0003916,5.949e-05,0.0,0 STARLINK-3941,1 52638U 22052AS  23261.45127076  .00005949  00000-0  39160-3 0  9990,2 52638  53.2184   3.9159 0001312  84.2015 275.9126 15.08837424 75010,6917.888,95.438,540.661,538.846,0.0
52638.0,STARLINK-3941,PAYLOAD,2023-09-18 12:25:12,15.08840356,0.000128,53.2184,3.6183,84.9653,275.1485,0.00024034,3.539e-05,0.0,0 STARLINK-3941,1 52638U 22052AS  23261.51751005  .00003539  00000-0  24034-3 0  9999,2 52638  53.2184   3.6183 0001280  84.9653 275.1485 15.08840356 75459,6917.879,95.438,540.63,538.859,0.0
52638.0,STARLINK-3941,PAYLOAD,2023-09-19 10:40:36,15.08861042,0.0001375,53.2182,359.4557,85.6831,274.4319,0.00062141,9.621e-05,0.0,0 STARLINK-3941,1 52638U 22052AS  23262.44486301  .00009621  00000-0  62141-3 0  9995,2 52638  53.2182 359.4557 0001375  85.6831 274.4319 15.08861042 75166,6917.816,95.436,540.632,538.73,0.0
52638.0,STARLINK-3941,PAYLOAD,2023-09-19 17:02:07,15.08886715,0.000143,53.2178,358.266,86.2996,273.8159,0.0013464,0.00021232,0.0,0 STARLINK-3941,1 52638U 22052AS  23262.70981456  .00021232  00000-0  13464-2 0  9990,2 52638  53.2178 358.2660 0001430  86.2996 273.8159 15.08886715 75208,6917.738,95.435,540.592,538.613,0.0
52638.0,STARLINK-3941,PAYLOAD,2023-09-20 08:56:00,15.08827138,0.0001662,53.2181,355.2936,96.6879,263.4302,-0.00038629,-6.428e-05,0.0,0 STARLINK-3941,1 52638U 22052AS  23263.37222763 -.00006428  00000-0 -38629-3 0  9996,2 52638  53.2181 355.2936 0001662  96.6879 263.4302 15.08827138 75307,6917.92,95.438,540.934,538.635,0.0
52638.0,STARLINK-3941,PAYLOAD,2023-09-20 13:42:10,15.08820036,0.0001175,53.2173,354.3988,82.7758,277.3367,-0.00023072,-3.956e-05,0.0,0 STARLINK-3941,1 52638U 22052AS  23263.57095256 -.00003956  00000-0 -23072-3 0  9992,2 52638  53.2173 354.3988 0001175  82.7758 277.3367 15.08820036 75761,6917.941,95.439,540.619,538.994,0.0
52638.0,STARLINK-3941,PAYLOAD,2023-09-20 15:17:33,15.08821421,0.0001144,53.2175,354.1021,88.0002,272.1121,-1.2343e-05,-4.84e-06,0.0,0 STARLINK-3941,1 52638U 22052AS  23263.63719350 -.00000484  00000-0 -12343-4 0  9990,2 52638  53.2175 354.1021 0001144  88.0002 272.1121 15.08821421 75777,6917.937,95.439,540.594,539.011,0.0
52638.0,STARLINK-3941,PAYLOAD,2023-09-21 10:22:11,15.08851182,0.0001247,53.2168,350.5351,65.859,294.2533,0.0016054,0.00025362,0.0,0 STARLINK-3941,1 52638U 22052AS  23264.43208067  .00025362  00000-0  16054-2 0  9998,2 52638  53.2168 350.5351 0001247  65.8590 294.2533 15.08851182 75469,6917.846,95.437,540.574,538.849,0.0
52638.0,STARLINK-3941,PAYLOAD,2023-09-21 13:32:57,15.0885582,0.0001132,53.217,349.9402,72.9476,287.164,0.001357,0.00021384,0.0,0 STARLINK-3941,1 52638U 22052AS  23264.56455840  .00021384  00000-0  13570-2 0  9995,2 52638  53.2170 349.9402 0001132  72.9476 287.1640 15.08855820 75919,6917.832,95.437,540.48,538.914,0.0
52638.0,STARLINK-3941,PAYLOAD,2023-09-21 23:05:16,15.08853871,0.0001736,53.2169,348.1598,54.2553,305.86,0.00059806,9.247e-05,0.0,0 STARLINK-3941,1 52638U 22052AS  23264.96199897  .00009247  00000-0  59806-3 0  9993,2 52638  53.2169 348.1598 0001736  54.2553 305.8600 15.08853871 75540,6917.838,95.437,540.904,538.502,0.0
52638.0,STARLINK-3941,PAYLOAD,2023-09-22 10:12:58,15.08846811,0.000155,53.2172,346.0764,61.3747,298.7401,0.00023408,3.44e-05,0.0,0 STARLINK-3941,1 52638U 22052AS  23265.42567803  .00003440  00000-0  23408-3 0  9999,2 52638  53.2172 346.0764 0001550  61.3747 298.7401 15.08846811 75617,6917.86,95.437,540.797,538.652,0.0
52638.0,STARLINK-3941,PAYLOAD,2023-09-22 11:48:21,15.08845415,0.0001509,53.217,345.7789,63.2647,296.85,0.00043584,6.656e-05,0.0,0 STARLINK-3941,1 52638U 22052AS  23265.49191917  .00006656  00000-0  43584-3 0  9994,2 52638  53.2170 345.7789 0001509  63.2647 296.8500 15.08845415 76059,6917.864,95.437,540.773,538.685,0.0
52638.0,STARLINK-3941,PAYLOAD,2023-09-22 16:34:30,15.08860351,0.000133,53.2174,344.8843,76.5004,283.6136,0.00060138,9.301e-05,0.0,0 STARLINK-3941,1 52638U 22052AS  23265.69063197  .00009301  00000-0  60138-3 0  9998,2 52638  53.2174 344.8843 0001330  76.5004 283.6136 15.08860351 75650,6917.818,95.436,540.603,538.763,0.0
52638.0,STARLINK-3941,PAYLOAD,2023-09-22 22:56:03,15.08845862,0.0001381,53.2173,343.6967,65.5824,294.5312,0.00015298,2.148e-05,0.0,0 STARLINK-3941,1 52638U 22052AS  23265.95559528  .00002148  00000-0  15298-3 0  9994,2 52638  53.2173 343.6967 0001381  65.5824 294.5312 15.08845862 75698,6917.862,95.437,540.683,538.772,0.0
52638.0,STARLINK-3941,PAYLOAD,2023-09-23 11:39:08,15.08851194,0.0001472,53.2177,341.3166,71.8158,288.2995,0.00021782,3.181e-05,0.0,0 STARLINK-3941,1 52638U 22052AS  23266.48551246  .00003181  00000-0  21782-3 0  9995,2 52638  53.2177 341.3166 0001472  71.8158 288.2995 15.08851194 76209,6917.846,95.437,540.729,538.693,0.0
52638.0,STARLINK-3941,PAYLOAD,2023-09-23 18:00:40,15.08867761,0.0001263,53.2178,340.1269,82.5253,277.5883,0.00083989,0.00013114,0.0,0 STARLINK-3941,1 52638U 22052AS  23266.75046662  .00013114  00000-0  83989-3 0  9990,2 52638  53.2178 340.1269 0001263  82.5253 277.5883 15.08867761 75814,6917.796,95.436,540.534,538.787,0.0
52638.0,STARLINK-3941,PAYLOAD,2023-09-24 09:54:32,15.0884582,0.0001343,53.2179,337.1528,76.9823,283.1319,0.00062022,9.598e-05,0.0,0 STARLINK-3941,1 52638U 22052AS  23267.41287459  .00009598  00000-0  62022-3 0  9991,2 52638  53.2179 337.1528 0001343  76.9823 283.1319 15.08845820 75918,6917.863,95.437,540.657,538.799,0.0
52638.0,STARLINK-3941,PAYLOAD,2023-09-24 11:29:55,15.08845756,0.0001488,53.2181,336.856,84.5434,275.5727,0.0013792,0.00021734,0.0,0 STARLINK-3941,1 52638U 22052AS  23267.47911537  .00021734  00000-0  13792-2 0  9993,2 52638  53.2181 336.8560 0001488  84.5434 275.5727 15.08845756 76351,6917.863,95.437,540.757,538.698,0.0
52638.0,STARLINK-3941,PAYLOAD,2023-09-24 16:16:04,15.0885535,0.0001477,53.2179,335.9636,81.7082,278.4077,0.0017711,0.00028023,0.0,0 STARLINK-3941,1 52638U 22052AS  23267.67783399  .00028023  00000-0  17711-2 0  9991,2 52638  53.2179 335.9636 0001477  81.7082 278.4077 15.08855350 76382,6917.833,95.437,540.72,538.677,0.0
52638.0,STARLINK-3941,PAYLOAD,2023-09-25 11:20:42,15.08878016,0.0001431,53.2183,332.3953,89.8069,270.3087,0.0029596,0.00047179,0.0,0 STARLINK-3941,1 52638U 22052AS  23268.47271209  .00047179  00000-0  29596-2 0  9999,2 52638  53.2183 332.3953 0001431  89.8069 270.3087 15.08878016 76076,6917.764,95.435,540.619,538.639,0.0
52638.0,STARLINK-3941,PAYLOAD,2023-09-25 16:06:51,15.08880586,0.0001453,53.2184,331.5035,86.282,273.8338,0.0022128,0.00035144,0.0,0 STARLINK-3941,1 52638U 22052AS  23268.67142852  .00035144  00000-0  22128-2 0  9995,2 52638  53.2184 331.5035 0001453  86.2820 273.8338 15.08880586 76105,6917.756,95.435,540.626,538.616,0.0
52638.0,STARLINK-3941,PAYLOAD,2023-09-26 09:36:06,15.08833238,0.0001597,53.2179,328.2327,109.3404,250.7761,0.0013283,0.00020911,0.0,0 STARLINK-3941,1 52638U 22052AS  23269.40007941  .00020911  00000-0  13283-2 0  9994,2 52638  53.2179 328.2327 0001597 109.3404 250.7761 15.08833238 76218,6917.901,95.438,540.871,538.661,0.0
52638.0,STARLINK-3941,PAYLOAD,2023-09-27 09:26:53,15.08852707,0.0001617,53.2174,323.7726,106.9102,253.2067,0.00087217,0.00013625,0.0,0 STARLINK-3941,1 52638U 22052AS  23270.39367949  .00013625  00000-0  87217-3 0  9994,2 52638  53.2174 323.7726 0001617 106.9102 253.2067 15.08852707 76362,6917.842,95.437,540.825,538.588,0.0
52638.0,STARLINK-3941,PAYLOAD,2023-09-27 12:37:40,15.08854827,0.0001517,53.2174,323.1787,97.5742,262.5423,0.00079902,0.00012456,0.0,0 STARLINK-3941,1 52638U 22052AS  23270.52615892  .00012456  00000-0  79902-3 0  9995,2 52638  53.2174 323.1787 0001517  97.5742 262.5423 15.08854827 76811,6917.835,95.437,540.75,538.651,0.0
52638.0,STARLINK-3941,PAYLOAD,2023-09-28 12:28:27,15.08841145,0.0001587,53.2164,318.7157,96.9149,263.2023,0.00039013,5.927e-05,0.0,0 STARLINK-3941,1 52638U 22052AS  23271.51976386  .00005927  00000-0  39013-3 0  9997,2 52638  53.2164 318.7157 0001587  96.9149 263.2023 15.08841145 76534,6917.877,95.437,540.84,538.644,0.0
52638.0,STARLINK-3941,PAYLOAD,2023-09-29 10:43:51,15.08843376,0.0001782,53.2172,314.547,84.7941,275.3255,0.00038808,5.894e-05,0.0,0 STARLINK-3941,1 52638U 22052AS  23272.44712682  .00005894  00000-0  38808-3 0  9991,2 52638  53.2172 314.5470 0001782  84.7941 275.3255 15.08843376 76671,6917.87,95.437,540.968,538.502,0.0
52638.0,STARLINK-3941,PAYLOAD,2023-09-29 12:19:14,15.0884708,0.000175,53.2173,314.2499,88.711,271.4083,0.00039692,6.036e-05,0.0,0 STARLINK-3941,1 52638U 22052AS  23272.51336566  .00006036  00000-0  39692-3 0  9993,2 52638  53.2173 314.2499 0001750  88.7110 271.4083 15.08847080 77119,6917.859,95.437,540.934,538.513,0.0
52638.0,STARLINK-3941,PAYLOAD,2023-09-29 23:26:56,15.08853123,0.0001697,53.2156,312.1719,118.4489,241.6674,0.00052049,8.008e-05,0.0,0 STARLINK-3941,1 52638U 22052AS  23272.97704103  .00008008  00000-0  52049-3 0  9991,2 52638  53.2156 312.1719 0001697 118.4489 241.6674 15.08853123 77189,6917.84,95.437,540.879,538.531,0.0
